OBJECT B                
1 51825U 22019B   25263.96342712  .00032324  00000+0  68807-3 0  9992
2 51825  97.3780 341.8878 0009273  44.1904 316.0084 15.44849609197839
